[Satellite]
VERSION=1.1
NAME=S-Net H
NICKNAME=S-Net H
TLE1=1 43187U 18014H   19311.56168399  .00000759  00000-0  71527-4 0  9996
TLE2=2 43187  97.7007 217.8611 0009446 247.5974 112.4247 14.96704598 96359
STATUS=0
